Skip Page Navigation
NASA Logo - Jet Propulsion Laboratory				+ View the NASA Portal
+ Center for Near-Earth Object Studies			
JPL Home	Earth	Solar System	Stars & Galaxies	Technology

JPL Solar System Dynamics
BODIES		ORBITS		EPHEMERIDES		TOOLS		PHYSICAL DATA		DISCOVERY		FAQ		SITE MAP

IMPORTANT: The SSD Announcement email list is now available. Major changes are coming in the near future, including possible hostname and/or URL changes. To be notified of such changes, subscribe to this email list.

Please visit this page for more details.


Don't show this message again
HORIZONS Web-Interface
This tool provides a web-based limited interface to JPL's HORIZONS system which can be used to generate ephemerides for solar-system bodies. Full access to HORIZONS features is available via the primary telnet interface. HORIZONS system news shows recent changes and improvements. A web-interface tutorial is available to assist new users.
Current Settings
Ephemeris Type [change] : 	ELEMENTS
Target Body [change] : 	Ariel (UI) [701]
Center [change] : 	Uranus System Barycenter [500@7]
Time Span [change] : 	Start=JD 2458850.0, Stop=JD 2464329.0, Intervals=500
Table Settings [change] : 	CSV format=YES
Display/Output [change] : 	default (formatted HTML)
Object Data Page
 Revised: Jun 17, 2016             Ariel  / (Uranus)                        701

 SATELLITE PHYSICAL PROPERTIES:
  Radius (km)           = 581.1x577.9x577.7 Density (g cm^-3)   = 1.67 +- 0.15
  Mass (10^20 kg )      =   13.53 +- 1.20   Geometric Albedo    =  0.34 
                                            V(1,0)              = +1.45

 SATELLITE ORBITAL DATA:
  Semi-major axis, a (km) = 191.2 (10^3)    Orbital period      = 2.520 d
  Eccentricity, e         =   0.0034        Rotational period   = Synchronous
  Inclination, i  (deg)   =   0.31
Results
*******************************************************************************
Ephemeris / WWW_USER Fri May 15 20:18:24 2020 Pasadena, USA      / Horizons    
*******************************************************************************
Target body name: Ariel (701)                     {source: ura111}
Center body name: Uranus Barycenter (7)           {source: DE431mx}
Center-site name: BODY CENTER
*******************************************************************************
Start time      : A.D. 2020-Jan-01 12:00:00.0000 TDB
Stop  time      : A.D. 2035-Jan-01 12:00:00.0000 TDB
Step-size       : 500 steps
*******************************************************************************
Center geodetic : 0.00000000,0.00000000,0.0000000 {E-lon(deg),Lat(deg),Alt(km)}
Center cylindric: 0.00000000,0.00000000,0.0000000 {E-lon(deg),Dxy(km),Dz(km)}
Center radii    : (undefined)                                                  
Keplerian GM    : 1.2919689964356046E-08 au^3/d^2
Output units    : AU-D, deg, Julian Day Number (Tp)                            
Output type     : GEOMETRIC osculating elements
Output format   : 10
Reference frame : ICRF/J2000.0                                                 
Coordinate systm: Ecliptic and Mean Equinox of Reference Epoch                 
*******************************************************************************
            JDTDB,            Calendar Date (TDB),                     EC,                     QR,                     IN,                     OM,                      W,                     Tp,                      N,                     MA,                     TA,                      A,                     AD,                     PR,
**************************************************************************************************************************************************************************************************************************************************************************************************************************************************
$$SOE
2463386.612000000, A.D. 2032-Jun-03 02:41:16.8000,  5.680185478892366E-04,  1.275452306315040E-03,  9.773871583407370E+01,  1.676734460953049E+02,  2.912563943454353E+02,  2.463386394110376E+06,  1.428506454817300E+02,  3.112567350242613E+01,  3.115934015532850E+01,  1.276177198634258E-03,  1.276902090953475E-03,  2.520114618915338E+00,
2463397.570000000, A.D. 2032-Jun-14 01:40:48.0000,  8.180904782770955E-04,  1.274754476611320E-03,  9.773871407303494E+01,  1.676733201105698E+02,  2.875225414759993E+02,  2.463396450106580E+06,  1.429143055568292E+02,  1.600487904910932E+02,  1.600807478526525E+02,  1.275798194966825E-03,  1.276841913322330E-03,  2.518992053296216E+00,
2463408.528000000, A.D. 2032-Jun-25 00:40:19.2000,  5.594857972593458E-04,  1.275587515427156E-03,  9.773875933614443E+01,  1.676731976034008E+02,  3.000802369651158E+02,  2.463409139405241E+06,  1.428297624781458E+02,  2.726731346526829E+02,  2.726090899910084E+02,  1.276301588038684E-03,  1.277015660650211E-03,  2.520483082474377E+00,
2463419.486000000, A.D. 2032-Jul-05 23:39:50.4000,  3.359081376804924E-04,  1.275360852985561E-03,  9.773878398599817E+01,  1.676730800923263E+02,  2.669163239801602E+02,  2.463418988859169E+06,  1.429157832089248E+02,  7.104927129789910E+01,  7.108568214893096E+01,  1.275789401027333E-03,  1.276217949069105E-03,  2.518966008629890E+00,
2463430.444000000, A.D. 2032-Jul-16 22:39:21.6000,  2.646914003562530E-04,  1.276392851106825E-03,  9.773881819379910E+01,  1.676729536667638E+02,  3.024749475605852E+02,  2.463429318482653E+06,  1.427577452151145E+02,  1.606763187428140E+02,  1.606863524053491E+02,  1.276730790767711E-03,  1.277068730428597E-03,  2.521754595223777E+00,
2463441.402000000, A.D. 2032-Jul-27 21:38:52.8000,  4.929818325866680E-04,  1.275566034947999E-03,  9.773883480716410E+01,  1.676728295317593E+02,  2.885903236008810E+02,  2.463441823753382E+06,  1.428476270558215E+02,  2.997535302037119E+02,  2.997044710314881E+02,  1.276195175984594E-03,  1.276824317021189E-03,  2.520167869917226E+00,
2463452.360000000, A.D. 2032-Aug-07 20:38:24.0000,  7.606070824669232E-04,  1.275879122452299E-03,  9.773886109020891E+01,  1.676727201261329E+02,  3.220952546693052E+02,  2.463452139735871E+06,  1.427377025167447E+02,  3.143999582367480E+01,  3.148549540404576E+01,  1.276850303836647E-03,  1.277821485220995E-03,  2.522108690643721E+00,
2463463.318000000, A.D. 2032-Aug-18 19:37:55.2000,  3.935378318852376E-04,  1.275782736945313E-03,  9.773885611734241E+01,  1.676725788381302E+02,  3.244159144755643E+02,  2.463462237589506E+06,  1.428325464849820E+02,  1.543177821873045E+02,  1.543373172534009E+02,  1.276285003378410E-03,  1.276787269811507E-03,  2.520433954720900E+00,
2463474.276000000, A.D. 2032-Aug-29 18:37:26.4000,  5.822071272722220E-04,  1.275963527345536E-03,  9.773887504888262E+01,  1.676724849522426E+02,  2.912951451454999E+02,  2.463474607752555E+06,  1.427617632056127E+02,  3.126384203486371E+02,  3.125893169718724E+02,  1.276706835164406E-03,  1.277450142983277E-03,  2.521683621135372E+00,
2463485.234000000, A.D. 2032-Sep-09 17:36:57.6000,  4.648373581983622E-04,  1.275461205563771E-03,  9.773888780134243E+01,  1.676723125257887E+02,  2.841108908681984E+02,  2.463484639045275E+06,  1.428712725754640E+02,  8.500193876284509E+01,  8.505500534134158E+01,  1.276054363302926E-03,  1.276647521042081E-03,  2.519750776419028E+00,
2463496.192000000, A.D. 2032-Sep-20 16:36:28.8000,  7.075122116100336E-04,  1.275201932497175E-03,  9.773891908808989E+01,  1.676722423073207E+02,  3.041220828877086E+02,  2.463497380494409E+06,  1.428628037108085E+02,  1.902083565820618E+02,  1.901940003080170E+02,  1.276104792220965E-03,  1.277007651944755E-03,  2.519900146498129E+00,
2463507.150000000, A.D. 2032-Oct-01 15:36:00.0000,  5.015922411036968E-04,  1.275458133112123E-03,  9.773892230004149E+01,  1.676720920921799E+02,  3.304110824068345E+02,  2.463507646292997E+06,  1.428639083752647E+02,  2.890976427939742E+02,  2.890433168867273E+02,  1.276098214075190E-03,  1.276738295038257E-03,  2.519880661912020E+00,
2463518.108000000, A.D. 2032-Oct-12 14:35:31.2000,  3.554934343672196E-04,  1.275430534956436E-03,  9.773893256539920E+01,  1.676720201313762E+02,  3.046835715565150E+02,  2.463517548010738E+06,  1.428998716428289E+02,  8.002239369646639E+01,  8.006251721126792E+01,  1.275884103378200E-03,  1.276337671799965E-03,  2.519246489596589E+00,
2463529.066000000, A.D. 2032-Oct-23 13:35:02.4000,  6.413738971182994E-04,  1.275304928865810E-03,  9.773895565254350E+01,  1.676718701304710E+02,  3.185263239461087E+02,  2.463530246341478E+06,  1.428596788081287E+02,  1.913767955655387E+02,  1.913623091005242E+02,  1.276123401104781E-03,  1.276941873343751E-03,  2.519955266618701E+00,
2463540.024000000, A.D. 2032-Nov-03 12:34:33.6000,  5.877055716605176E-04,  1.275231466450920E-03,  9.773893633511423E+01,  1.676717561651550E+02,  3.192498338513442E+02,  2.463540333041839E+06,  1.428835326778034E+02,  3.158430102694561E+02,  3.157960704429306E+02,  1.275981367810117E-03,  1.276731269169315E-03,  2.519534569541932E+00,
2463550.982000000, A.D. 2032-Nov-14 11:34:04.8000,  8.083302902878011E-04,  1.275564701624809E-03,  9.773897647549846E+01,  1.676716100086094E+02,  3.264129760447467E+02,  2.463550464639958E+06,  1.427802527606581E+02,  7.386879753668688E+01,  7.395780337171124E+01,  1.276596613335847E-03,  1.277628525046886E-03,  2.521357071719619E+00,
2463561.940000000, A.D. 2032-Nov-25 10:33:36.0000,  6.398397926340172E-04,  1.275315742827368E-03,  9.773897270481511E+01,  1.676715003271451E+02,  3.186407183554019E+02,  2.463563012166970E+06,  1.428581907066000E+02,  2.068321665948688E+02,  2.067990950146998E+02,  1.276132263029919E-03,  1.276948783232469E-03,  2.519981516071154E+00,
2463572.898000000, A.D. 2032-Dec-06 09:33:07.2000,  9.017436782493227E-04,  1.275679220424459E-03,  9.773899624687446E+01,  1.676713981703963E+02,  2.939930133931143E+02,  2.463572921217786E+06,  1.427410075350233E+02,  3.566858698778174E+02,  3.566798894890252E+02,  1.276830594341101E-03,  1.277981968257743E-03,  2.522050293862956E+00,
